LEMUR-2-MANO
1 57390U 23100E   25133.72945209  .00031562  00000+0  11281-2 0  9993
2 57390  99.4566  64.0050 0005190 307.5028  52.5733 15.28767465100311
LEMUR-2-DEVERILL-M-T
1 57391U 23100F   25133.75108616  .00014564  00000+0  67112-3 0  9998
2 57391  99.4384  60.4036 0008437 297.9424  62.0950 15.20412248100206
LEO 3
1 57392U 23100G   25133.82539546 -.00000026  00000+0  21439-4 0  9999
2 57392  99.5166 257.8473 0017607 326.3388  33.6638 13.68372467 91022
TIANMU-1 07
1 57399U 23101A   25133.90029056  .00006476  00000+0  26394-3 0  9994
2 57399  97.3125 188.5985 0006153 107.7389 252.4521 15.24779410100693
TIANMU-1 08
1 57400U 23101B   25133.93220643  .00006013  00000+0  24516-3 0  9996
2 57400  97.3113 188.4613 0008174 111.6969 248.5140 15.24784318100699
TIANMU-1 09
1 57401U 23101C   25133.91454260  .00006456  00000+0  26359-3 0  9997
2 57401  97.3069 188.0922 0007348 111.0237 249.1788 15.24709780100698
TIANMU-1 10
1 57402U 23101D   25133.94688430  .00006554  86390-8  26531-3 0  9995
2 57402  97.3149 188.7497 0009246 111.8107 248.4115 15.24692234100696
STARLINK-30240
1 57404U 23102A   25133.54294797  .00000723  00000+0  68594-4 0  9996
2 57404  43.0042  80.0324 0001187 267.4894  92.5813 15.02534701101085
STARLINK-30192
1 57405U 23102B   25133.53961429  .00000854  00000+0  78264-4 0  9999
2 57405  43.0043  79.9954 0000978 278.2052  81.8680 15.02534560101082
STARLINK-30195
1 57406U 23102C   25133.53628763  .00000824  00000+0  76084-4 0  9996
2 57406  43.0037  79.9838 0001139 267.1768  92.8944 15.02532021101083
STARLINK-30207
1 57407U 23102D   25133.17087020  .00000834  00000+0  76839-4 0  9991
2 57407  43.0036  68.6219 0001239 270.9544  89.1157 15.02533571101194
STARLINK-30205
1 57408U 23102E   25133.19392324  .00001972  00000+0  16099-3 0  9995
2 57408  43.0042  81.7173 0000102 325.9283  34.1552 15.02533291101037
STARLINK-30222
1 57409U 23102F   25133.25041296  .00000727  00000+0  68881-4 0  9996
2 57409  43.0043  81.2810 0001270 276.4694  83.6004 15.02531009101042
STARLINK-30172
1 57410U 23102G   25133.19057981  .00001932  00000+0  15799-3 0  9997
2 57410  43.0042  81.6791 0001007 266.2427  93.8300 15.02554728101038
STARLINK-30214
1 57411U 23102H   25133.55947115  .00000393  00000+0  44210-4 0  9996
2 57411  43.0046  79.3092 0001197 282.7282  77.3427 15.02520706101040
STARLINK-30182
1 57412U 23102J   25133.91850696 -.00000250  00000+0 -34493-5 0  9991
2 57412  43.0021  77.6904 0001035 300.4654  59.6086 15.02533617101149
STARLINK-30191
1 57413U 23102K   25133.56579717  .00009201  00000+0  54952-3 0  9998
2 57413  43.0010  76.8044 0000813 186.6717 173.4117 15.11277494101127
STARLINK-30193
1 57414U 23102L   25133.84192824  .00058718  00000+0  43615-2 0  9990
2 57414  43.0025  77.9770 0000862 275.2595  84.8149 15.02222381101131
STARLINK-30208
1 57415U 23102M   25133.90519290  .00002402  00000+0  19281-3 0  9990
2 57415  43.0039  77.5920 0000785 249.8111 110.2647 15.02540243101097
STARLINK-30224
1 57416U 23102N   25133.56946770  .00000496  00000+0  51796-4 0  9999
2 57416  43.0043  79.3723 0001137 271.4586  88.6126 15.02531413101092
STARLINK-30043
1 57417U 23102P   25133.89519954 -.00000030  00000+0  12856-4 0  9995
2 57417  43.0030  77.5160 0000712 270.6555  89.4206 15.02531681101140
STARLINK-30221
1 57418U 23102Q   25133.56612509  .00000644  00000+0  62740-4 0  9997
2 57418  43.0021  79.3484 0001131 255.3702 104.7015 15.02537143101092
2023-103B
1 57422U 23103B   25133.86212045  .00157560  10444-4  27992-3 0  9994
2 57422  96.4781 196.4660 0025856 157.2166 203.0269 16.01165457103308
2023-104A
1 57424U 23104A   25133.89029516  .00010366  00000+0  37086-3 0  9998
2 57424  97.3136 203.1446 0011349 105.1786 255.0710 15.28913592100904
2023-104B
1 57425U 23104B   25133.94218998  .00027599  00000+0  49697-3 0  9996
2 57425  97.3091 207.8952 0009066  93.1825 267.0463 15.49735590101239
2023-104C
1 57426U 23104C   25133.92392692  .00014867  00000+0  58497-3 0  9991
2 57426  97.3099 202.9988 0011287 169.6252 190.5221 15.25678317100917
STARLINK-30189
1 57430U 23105A   25133.59921324  .00000272  00000+0  35189-4 0  9999
2 57430  43.0034  92.7339 0000971 266.1177  93.9554 15.02531178100374
STARLINK-30170
1 57431U 23105B   25133.91667824  .00289758  00000+0  39474-2 0  9995
2 57431  42.9911  67.3631 0021366 193.8642 311.6881 15.55539401  5747
STARLINK-30188
1 57432U 23105C   25133.92492691  .00000772  00000+0  72193-4 0  9999
2 57432  43.0021  90.8746 0000915 274.0155  86.0583 15.02534879100438
STARLINK-30105
1 57433U 23105D   25133.81536133 -.00001452  00000+0 -43241-4 0  9998
2 57433  43.0017 284.3548 0001601 261.5928  98.4742 15.27574199102461
STARLINK-30102
1 57434U 23105E   25133.58587846  .00000407  00000+0  45162-4 0  9991
2 57434  43.0024  92.6293 0000966 269.3155  90.7577 15.02534285100406
STARLINK-30180
1 57435U 23105F   25133.91667824  .00248116  00000+0  36726-2 0  9999
2 57435  42.9932  66.8218 0020840 194.4050 183.9323 15.53436168  5953
STARLINK-30183
1 57436U 23105G   25133.90062215  .00043939  00000+0  23150-2 0  9995
2 57436  42.9974  83.9023 0010527 164.2264 195.8913 15.14868396100555
STARLINK-30237
1 57437U 23105H   25133.57588809 -.00000333  00000+0 -95932-5 0  9994
2 57437  43.0034  92.5595 0001112 270.4218  89.6497 15.02537902100655
STARLINK-30158
1 57438U 23105J   25133.57923202  .00014632  00000+0  10974-2 0  9990
2 57438  43.0033  92.5824 0001531 258.7673 101.2997 15.02485711100419
STARLINK-30173
1 57439U 23105K   25133.91667824  .00389009  00000+0  42490-2 0  9995
2 57439  42.9907  53.5818 0023481 207.8484   5.2613 15.60998755  5964
STARLINK-30159
1 57440U 23105L   25133.17368869  .00001406  00000+0  11914-3 0  9992
2 57440  43.0029  94.6969 0000815 277.6510  82.4239 15.02531816100196
STARLINK-30160
1 57441U 23105M   25133.56923327 -.00001842  00000+0 -12139-3 0  9998
2 57441  43.0018  92.5087 0001097 284.0847  75.9873 15.02525554100251
STARLINK-30146
1 57442U 23105N   25133.89828882  .00000508  00000+0  52694-4 0  9992
2 57442  43.0036  90.6774 0001024 264.4898  95.5827 15.02535325100526
STARLINK-30197
1 57443U 23105P   25133.23017915  .00000342  00000+0  40380-4 0  9993
2 57443  43.0031  94.2627 0001070 269.6962  90.3758 15.02538328100431
STARLINK-30181
1 57444U 23105Q   25133.61571995 -.00003227  00000+0 -22391-3 0  9997
2 57444  43.0041  91.9980 0001090 271.7321  88.3396 15.02541420100481
STARLINK-30215
1 57445U 23105R   25133.88607924  .00000597  00000+0  59247-4 0  9995
2 57445  43.0034  90.5831 0001067 272.9762  87.0959 15.02535709100305
STARLINK-30162
1 57446U 23105S   25133.54621536  .00000193  00000+0  29391-4 0  9993
2 57446  43.0033  79.5992 0000975 269.2736  90.7995 15.02534362100571
STARLINK-30178
1 57447U 23105T   25133.88496819 -.00000253  00000+0 -36494-5 0  9997
2 57447  43.0044  90.5767 0002720 243.9132 116.1430 15.02535697100463
STARLINK-30196
1 57448U 23105U   25133.60906704  .00000979  00000+0  87522-4 0  9997
2 57448  43.0035  91.9463 0001293 276.7130  83.3565 15.02536174100261
STARLINK-30225
1 57449U 23105V   25133.60573569  .00001527  00000+0  12807-3 0  9990
2 57449  43.0033  91.9182 0001229 266.7532  93.3170 15.02536858100523
STARLINK-30217
1 57450U 23105W   25133.52958044 -.00000545  00000+0 -25297-4 0  9997
2 57450  43.0047  79.5243 0001217 270.0229  90.0474 15.02525755100567
STARLINK-30216
1 57451U 23105X   25133.60241051  .00000266  00000+0  34745-4 0  9996
2 57451  43.0023  91.9094 0001138 269.6973  90.3739 15.02532661100264
YAOGAN-36 05A
1 57452U 23106A   25133.93750985  .00012374  00000+0  51415-3 0  9990
2 57452  35.0039  48.4181 0001159 356.9208   3.1500 15.23012482100244
YAOGAN-36 05B
1 57454U 23106C   25133.90089359  .00006533  00000+0  33015-3 0  9995
2 57454  34.9974  49.8615 0015350 138.8199 221.3674 15.16303321100189
YAOGAN-36 05C
1 57456U 23106E   25133.89730459  .00007392  00000+0  37343-3 0  9991
2 57456  34.9947  49.7693 0004274 103.8431 256.2757 15.16381165100181
STARLINK-30165
1 57457U 23107A   25133.56429390 -.00000315  00000+0 -82634-5 0  9991
2 57457  43.0029 170.0316 0001404 270.1906  89.8775 15.02532472 99957
STARLINK-30140
1 57458U 23107B   25133.56096175 -.00000310  00000+0 -78671-5 0  9994
2 57458  43.0026 170.0059 0001246 291.1922  68.8787 15.02539349 99965
STARLINK-30185
1 57459U 23107C   25133.15876575  .00000884  00000+0  80527-4 0  9996
2 57459  43.0031 172.1494 0001301 272.0471  88.0222 15.02536063 99909
STARLINK-30077
1 57460U 23107D   25133.42134408  .00000054  00000+0  19099-4 0  9995
2 57460  43.0021 170.6788 0001191 271.6835  88.3871 15.02535482 99946
STARLINK-30229
1 57461U 23107E   25133.50114163  .00001099  00000+0  96357-4 0  9993
2 57461  43.0015 170.4104 0001380 282.7905  77.2783 15.02545150 99954
STARLINK-30088
1 57462U 23107F   25133.41801791  .00000222  00000+0  31527-4 0  9999
2 57462  43.0031 170.6551 0001446 271.9513  88.1164 15.02532616 99945
STARLINK-30091
1 57463U 23107G   25133.41136860  .00002386  00000+0  19169-3 0  9998
2 57463  43.0023 170.6038 0001282 269.9847  90.0849 15.02531293 99944
STARLINK-30115
1 57464U 23107H   25133.91667824  .00605928  00000+0  52232-2 0  9991
2 57464  42.9790 128.0149 0029935 123.6911 268.2077 15.66125006  5802
STARLINK-30116
1 57465U 23107J   25133.41245672 -.00000418  00000+0 -15883-4 0  9998
2 57465  43.0022 170.6113 0001911 285.3391  74.7240 15.02536536 99943
STARLINK-30092
1 57467U 23107L   25133.40470174 -.00000257  00000+0 -39423-5 0  9994
2 57467  43.0030 170.5544 0001286 269.1019  90.9676 15.02531280 99947
STARLINK-30039
1 57468U 23107M   25133.13545462  .00000622  00000+0  61078-4 0  9992
2 57468  43.0023 171.9744 0001306 275.5601  84.5092 15.02536138 99902
STARLINK-30171
1 57469U 23107N   25133.39470908  .00000097  00000+0  22249-4 0  9996
2 57469  43.0028 170.4787 0002024 277.8112  82.2500 15.02534863 99945
STARLINK-30186
1 57470U 23107P   25133.13214354  .00002076  00000+0  16873-3 0  9995
2 57470  43.0030 171.9457 0001292 257.5824 102.4874 15.02533770 99902
